ONEWEB-0607             
1 54671U 22166AF  24116.80324763  .00000098  00000+0  20665-3 0  9995
2 54671  87.9318  39.6906 0001792  70.8058 289.3270 13.21827770 68183
ONEWEB-0608             
1 54672U 22166AG  24117.18804164  .00000131  00000+0  28659-3 0  9995
2 54672  87.9324  39.6324 0002068  60.8769 299.2572 13.21828907 68706
ONEWEB-0610             
1 54673U 22166AH  24116.79063664  .00000066  00000+0  12776-3 0  9994
2 54673  87.9318  39.7088 0002021  68.3780 291.7569 13.21829317 68094
ONEWEB-0611             
1 54674U 22166AJ  24116.78433018  .00000131  00000+0  28527-3 0  9992
2 54674  87.9319  39.7096 0001805  91.9697 268.1643 13.21829306 68081
ONEWEB-0612             
1 54675U 22166AK  24116.72126065  .00000122  00000+0  26418-3 0  9995
2 54675  87.9315  39.7055 0001997  70.8951 289.2399 13.21827177 68530
ONEWEB-0615             
1 54676U 22166AL  24116.85370644  .00000048  00000+0  84779-4 0  9996
2 54676  87.9316  39.7039 0001671  72.9391 287.1926 13.21829991 68094
ONEWEB-0655             
1 54677U 22166AM  24117.20538451  .00000136  00000+0  29852-3 0  9997
2 54677  87.9318  39.6354 0001418  66.3271 293.8012 13.21824157 68605
ONEWEB-0659             
1 54678U 22166AN  24116.84426260 -.00000011  00000+0 -57892-4 0  9991
2 54678  87.9317  39.7146 0002005  84.6110 275.5253 13.21827768 68170
